STARLINK-30494          
1 57970U 23151G   26068.36049035 -.00001272  00000+0 -35691-4 0  9993
2 57970  43.0027 192.4566 0001155 241.5536 118.5200 15.28417441137406
STARLINK-35356          
1 65836U 25221P   26068.34885525  .00013659  00000+0  47242-3 0  9997
2 65836  53.1576  89.7528 0001247  83.8441 276.2702 15.30201389 24686
